[{"OBJECT_NAME":"239ALFEROV (RS61S)","OBJECT_ID":"2025-155F","EPOCH":"2026-03-09T21:46:33.382848","MEAN_MOTION":15.29933217,"ECCENTRICITY":0.00084878,"INCLINATION":97.4469,"RA_OF_ASC_NODE":37.6373,"ARG_OF_PERICENTER":151.5904,"MEAN_ANOMALY":208.58,"EPHEMERIS_TYPE":0,"CLASSIFICATION_TYPE":"U","NORAD_CAT_ID":64881,"ELEMENT_SET_NO":999,"REV_AT_EPOCH":6561,"BSTAR":0.00067233359,"MEAN_MOTION_DOT":0.00019457,"MEAN_MOTION_DDOT":0},{"OBJECT_NAME":"STARLINK-34820","OBJECT_ID":"2025-161AC","EPOCH":"2026-03-09T21:38:10.196160","MEAN_MOTION":15.30200105,"ECCENTRICITY":9.289e-5,"INCLINATION":53.1577,"RA_OF_ASC_NODE":293.1186,"ARG_OF_PERICENTER":62.7884,"MEAN_ANOMALY":297.3211,"EPHEMERIS_TYPE":0,"CLASSIFICATION_TYPE":"U","NORAD_CAT_ID":65041,"ELEMENT_SET_NO":999,"REV_AT_EPOCH":3426,"BSTAR":0.0012359343,"MEAN_MOTION_DOT":0.00036425,"MEAN_MOTION_DDOT":0}]
